{"type":"FeatureCollection","properties":{"source":"OpenStreetMap contributors (ODbL), via Overpass API","downloadedAt":"2026-08-19T07:19:06.806Z","gateTypes":["sluice_gate","floodgate","weir","dam","check_dam","lock_gate"]},"features":[{"type":"Feature","properties":{"id":"node/1149152126","name":null,"gateType":"weir","operator":null},"geometry":{"type":"Point","coordinates":[101.010215,13.489304]}},{"type":"Feature","properties":{"id":"node/2498776630","name":null,"gateType":"weir","operator":null},"geometry":{"type":"Point","coordinates":[100.991628,12.666724]}},{"type":"Feature","properties":{"id":"node/2889224506","name":null,"gateType":"weir","operator":null},"geometry":{"type":"Point","coordinates":[101.220815,12.887082]}},{"type":"Feature","properties":{"id":"node/3006481259","name":null,"gateType":"lock_gate","operator":null},"geometry":{"type":"Point","coordinates":[100.986662,13.480638]}},{"type":"Feature","properties":{"id":"node/3006481260","name":null,"gateType":"lock_gate","operator":null},"geometry":{"type":"Point","coordinates":[100.986888,13.480827]}},{"type":"Feature","properties":{"id":"node/4631446007","name":null,"gateType":"weir","operator":null},"geometry":{"type":"Point","coordinates":[101.070459,12.734144]}},{"type":"Feature","properties":{"id":"node/5185834445","name":null,"gateType":"dam","operator":null},"geometry":{"type":"Point","coordinates":[101.440346,12.918661]}},{"type":"Feature","properties":{"id":"node/10288681792","name":null,"gateType":"weir","operator":null},"geometry":{"type":"Point","coordinates":[101.071303,13.582627]}},{"type":"Feature","properties":{"id":"way/142800722","name":null,"gateType":"dam","operator":null},"geometry":{"type":"Point","coordinates":[101.219378,12.893261]}},{"type":"Feature","properties":{"id":"way/154982694","name":null,"gateType":"weir","operator":null},"geometry":{"type":"Point","coordinates":[101.036221,13.486988]}},{"type":"Feature","properties":{"id":"way/156314455","name":null,"gateType":"dam","operator":null},"geometry":{"type":"Point","coordinates":[101.090277,12.944205]}},{"type":"Feature","properties":{"id":"way/163718903","name":null,"gateType":"dam","operator":null},"geometry":{"type":"Point","coordinates":[101.567233,12.979396]}},{"type":"Feature","properties":{"id":"way/294930782","name":null,"gateType":"weir","operator":null},"geometry":{"type":"Point","coordinates":[101.01826,13.16854]}},{"type":"Feature","properties":{"id":"way/306650583","name":null,"gateType":"dam","operator":null},"geometry":{"type":"Point","coordinates":[100.946715,12.832743]}},{"type":"Feature","properties":{"id":"way/307487290","name":null,"gateType":"dam","operator":null},"geometry":{"type":"Point","coordinates":[100.890698,12.745405]}},{"type":"Feature","properties":{"id":"way/307519372","name":null,"gateType":"dam","operator":null},"geometry":{"type":"Point","coordinates":[100.876202,12.761265]}},{"type":"Feature","properties":{"id":"way/307519373","name":null,"gateType":"dam","operator":null},"geometry":{"type":"Point","coordinates":[100.876247,12.761377]}},{"type":"Feature","properties":{"id":"way/307520413","name":null,"gateType":"dam","operator":null},"geometry":{"type":"Point","coordinates":[100.889501,12.742133]}},{"type":"Feature","properties":{"id":"way/307520419","name":null,"gateType":"dam","operator":null},"geometry":{"type":"Point","coordinates":[100.889443,12.742281]}},{"type":"Feature","properties":{"id":"way/307520428","name":null,"gateType":"dam","operator":null},"geometry":{"type":"Point","coordinates":[100.889607,12.742015]}},{"type":"Feature","properties":{"id":"way/307524099","name":null,"gateType":"dam","operator":null},"geometry":{"type":"Point","coordinates":[100.976729,12.66032]}},{"type":"Feature","properties":{"id":"way/307524104","name":null,"gateType":"dam","operator":null},"geometry":{"type":"Point","coordinates":[100.976742,12.660639]}},{"type":"Feature","properties":{"id":"way/307542262","name":null,"gateType":"dam","operator":null},"geometry":{"type":"Point","coordinates":[100.979413,12.653247]}},{"type":"Feature","properties":{"id":"way/307542293","name":null,"gateType":"dam","operator":null},"geometry":{"type":"Point","coordinates":[100.979377,12.653368]}},{"type":"Feature","properties":{"id":"way/307559440","name":null,"gateType":"weir","operator":null},"geometry":{"type":"Point","coordinates":[100.991672,12.666634]}},{"type":"Feature","properties":{"id":"way/460943947","name":"Khlong Luang Rachalothorn dam","gateType":"dam","operator":null},"geometry":{"type":"Point","coordinates":[101.357229,13.392824]}},{"type":"Feature","properties":{"id":"way/461379370","name":"Khlong Takrao Dam","gateType":"dam","operator":null},"geometry":{"type":"Point","coordinates":[101.652044,13.439683]}},{"type":"Feature","properties":{"id":"way/503990518","name":null,"gateType":"weir","operator":null},"geometry":{"type":"Point","coordinates":[101.276865,13.413994]}},{"type":"Feature","properties":{"id":"way/503990519","name":null,"gateType":"weir","operator":null},"geometry":{"type":"Point","coordinates":[101.258746,13.423039]}},{"type":"Feature","properties":{"id":"way/504022838","name":null,"gateType":"weir","operator":null},"geometry":{"type":"Point","coordinates":[101.372143,13.427209]}},{"type":"Feature","properties":{"id":"way/505302595","name":null,"gateType":"dam","operator":null},"geometry":{"type":"Point","coordinates":[100.978644,12.976593]}},{"type":"Feature","properties":{"id":"way/505302598","name":null,"gateType":"dam","operator":null},"geometry":{"type":"Point","coordinates":[100.975921,12.975811]}},{"type":"Feature","properties":{"id":"way/506378273","name":null,"gateType":"dam","operator":null},"geometry":{"type":"Point","coordinates":[101.1518,12.946759]}},{"type":"Feature","properties":{"id":"way/506378274","name":null,"gateType":"dam","operator":null},"geometry":{"type":"Point","coordinates":[101.146933,12.953899]}},{"type":"Feature","properties":{"id":"way/506399434","name":null,"gateType":"dam","operator":null},"geometry":{"type":"Point","coordinates":[101.32011,12.938445]}},{"type":"Feature","properties":{"id":"way/506399436","name":null,"gateType":"dam","operator":null},"geometry":{"type":"Point","coordinates":[101.313477,12.896867]}},{"type":"Feature","properties":{"id":"way/506457559","name":null,"gateType":"dam","operator":null},"geometry":{"type":"Point","coordinates":[101.296746,12.908943]}},{"type":"Feature","properties":{"id":"way/506460658","name":null,"gateType":"dam","operator":null},"geometry":{"type":"Point","coordinates":[101.231799,12.733577]}},{"type":"Feature","properties":{"id":"way/506460659","name":null,"gateType":"dam","operator":null},"geometry":{"type":"Point","coordinates":[101.343081,12.725153]}},{"type":"Feature","properties":{"id":"way/506460663","name":null,"gateType":"dam","operator":null},"geometry":{"type":"Point","coordinates":[101.324962,12.688689]}},{"type":"Feature","properties":{"id":"way/506471881","name":null,"gateType":"dam","operator":null},"geometry":{"type":"Point","coordinates":[101.191037,12.826141]}},{"type":"Feature","properties":{"id":"way/506483173","name":null,"gateType":"dam","operator":null},"geometry":{"type":"Point","coordinates":[101.021605,12.753413]}},{"type":"Feature","properties":{"id":"way/506497713","name":null,"gateType":"dam","operator":null},"geometry":{"type":"Point","coordinates":[101.002663,12.913495]}},{"type":"Feature","properties":{"id":"way/506918970","name":null,"gateType":"dam","operator":null},"geometry":{"type":"Point","coordinates":[100.912433,12.720013]}},{"type":"Feature","properties":{"id":"way/506918973","name":null,"gateType":"dam","operator":null},"geometry":{"type":"Point","coordinates":[100.918812,12.707296]}},{"type":"Feature","properties":{"id":"way/506918975","name":null,"gateType":"dam","operator":null},"geometry":{"type":"Point","coordinates":[100.917626,12.713816]}},{"type":"Feature","properties":{"id":"way/506918977","name":null,"gateType":"dam","operator":null},"geometry":{"type":"Point","coordinates":[100.92401,12.709831]}},{"type":"Feature","properties":{"id":"way/506926438","name":null,"gateType":"dam","operator":null},"geometry":{"type":"Point","coordinates":[100.985709,12.697546]}},{"type":"Feature","properties":{"id":"way/524561697","name":null,"gateType":"dam","operator":null},"geometry":{"type":"Point","coordinates":[101.223004,13.12974]}},{"type":"Feature","properties":{"id":"way/524561703","name":null,"gateType":"dam","operator":null},"geometry":{"type":"Point","coordinates":[101.246438,13.131454]}},{"type":"Feature","properties":{"id":"way/524561715","name":null,"gateType":"dam","operator":null},"geometry":{"type":"Point","coordinates":[101.251059,13.161603]}},{"type":"Feature","properties":{"id":"way/526542610","name":null,"gateType":"dam","operator":null},"geometry":{"type":"Point","coordinates":[101.716066,13.566986]}},{"type":"Feature","properties":{"id":"way/526542611","name":null,"gateType":"dam","operator":null},"geometry":{"type":"Point","coordinates":[101.705707,13.573646]}},{"type":"Feature","properties":{"id":"way/526542612","name":null,"gateType":"dam","operator":null},"geometry":{"type":"Point","coordinates":[101.698691,13.587167]}},{"type":"Feature","properties":{"id":"way/526542642","name":null,"gateType":"dam","operator":null},"geometry":{"type":"Point","coordinates":[101.434203,13.488627]}},{"type":"Feature","properties":{"id":"way/526543415","name":null,"gateType":"dam","operator":null},"geometry":{"type":"Point","coordinates":[101.673963,13.554181]}},{"type":"Feature","properties":{"id":"way/526763031","name":null,"gateType":"dam","operator":null},"geometry":{"type":"Point","coordinates":[101.273848,13.322204]}},{"type":"Feature","properties":{"id":"way/527586562","name":null,"gateType":"dam","operator":null},"geometry":{"type":"Point","coordinates":[101.207367,13.394301]}},{"type":"Feature","properties":{"id":"way/528386949","name":null,"gateType":"dam","operator":null},"geometry":{"type":"Point","coordinates":[101.222553,13.039998]}},{"type":"Feature","properties":{"id":"way/528386953","name":null,"gateType":"dam","operator":null},"geometry":{"type":"Point","coordinates":[101.221676,12.996838]}},{"type":"Feature","properties":{"id":"way/528393477","name":null,"gateType":"dam","operator":null},"geometry":{"type":"Point","coordinates":[101.203421,13.096303]}},{"type":"Feature","properties":{"id":"way/528393479","name":null,"gateType":"dam","operator":null},"geometry":{"type":"Point","coordinates":[101.210311,13.090375]}},{"type":"Feature","properties":{"id":"way/534242970","name":null,"gateType":"dam","operator":null},"geometry":{"type":"Point","coordinates":[101.4537,13.339591]}},{"type":"Feature","properties":{"id":"way/534242972","name":null,"gateType":"dam","operator":null},"geometry":{"type":"Point","coordinates":[101.416962,13.337188]}},{"type":"Feature","properties":{"id":"way/534242974","name":null,"gateType":"dam","operator":null},"geometry":{"type":"Point","coordinates":[101.387774,13.351688]}},{"type":"Feature","properties":{"id":"way/534263911","name":null,"gateType":"dam","operator":null},"geometry":{"type":"Point","coordinates":[101.446271,13.299976]}},{"type":"Feature","properties":{"id":"way/534263912","name":null,"gateType":"dam","operator":null},"geometry":{"type":"Point","coordinates":[101.45127,13.298621]}},{"type":"Feature","properties":{"id":"way/534263914","name":null,"gateType":"dam","operator":null},"geometry":{"type":"Point","coordinates":[101.453754,13.29911]}},{"type":"Feature","properties":{"id":"way/534263916","name":null,"gateType":"dam","operator":null},"geometry":{"type":"Point","coordinates":[101.455822,13.298206]}},{"type":"Feature","properties":{"id":"way/534263941","name":null,"gateType":"dam","operator":null},"geometry":{"type":"Point","coordinates":[101.419025,13.305319]}},{"type":"Feature","properties":{"id":"way/534263950","name":null,"gateType":"dam","operator":null},"geometry":{"type":"Point","coordinates":[101.425886,13.290018]}},{"type":"Feature","properties":{"id":"way/534263952","name":null,"gateType":"dam","operator":null},"geometry":{"type":"Point","coordinates":[101.428582,13.285945]}},{"type":"Feature","properties":{"id":"way/534263957","name":null,"gateType":"dam","operator":null},"geometry":{"type":"Point","coordinates":[101.407467,13.33036]}},{"type":"Feature","properties":{"id":"way/534263959","name":null,"gateType":"dam","operator":null},"geometry":{"type":"Point","coordinates":[101.411201,13.319774]}},{"type":"Feature","properties":{"id":"way/534263961","name":null,"gateType":"dam","operator":null},"geometry":{"type":"Point","coordinates":[101.412449,13.31269]}},{"type":"Feature","properties":{"id":"way/534555453","name":null,"gateType":"dam","operator":null},"geometry":{"type":"Point","coordinates":[101.580507,13.139919]}},{"type":"Feature","properties":{"id":"way/534555455","name":null,"gateType":"dam","operator":null},"geometry":{"type":"Point","coordinates":[101.542227,13.194895]}},{"type":"Feature","properties":{"id":"way/534555457","name":null,"gateType":"dam","operator":null},"geometry":{"type":"Point","coordinates":[101.54077,13.191252]}},{"type":"Feature","properties":{"id":"way/534555458","name":null,"gateType":"dam","operator":null},"geometry":{"type":"Point","coordinates":[101.547916,13.19658]}},{"type":"Feature","properties":{"id":"way/534555459","name":null,"gateType":"dam","operator":null},"geometry":{"type":"Point","coordinates":[101.561211,13.219574]}},{"type":"Feature","properties":{"id":"way/534555460","name":null,"gateType":"dam","operator":null},"geometry":{"type":"Point","coordinates":[101.596492,13.194267]}},{"type":"Feature","properties":{"id":"way/534556147","name":null,"gateType":"dam","operator":null},"geometry":{"type":"Point","coordinates":[101.556904,13.146525]}},{"type":"Feature","properties":{"id":"way/534556149","name":null,"gateType":"dam","operator":null},"geometry":{"type":"Point","coordinates":[101.557387,13.151158]}},{"type":"Feature","properties":{"id":"way/534556150","name":null,"gateType":"dam","operator":null},"geometry":{"type":"Point","coordinates":[101.55354,13.159496]}},{"type":"Feature","properties":{"id":"way/534556158","name":null,"gateType":"dam","operator":null},"geometry":{"type":"Point","coordinates":[101.545579,13.17499]}},{"type":"Feature","properties":{"id":"way/534558901","name":null,"gateType":"dam","operator":null},"geometry":{"type":"Point","coordinates":[101.552499,13.118523]}},{"type":"Feature","properties":{"id":"way/534558905","name":null,"gateType":"dam","operator":null},"geometry":{"type":"Point","coordinates":[101.556684,13.140862]}},{"type":"Feature","properties":{"id":"way/534562374","name":null,"gateType":"dam","operator":null},"geometry":{"type":"Point","coordinates":[101.574711,13.259284]}},{"type":"Feature","properties":{"id":"way/534562376","name":null,"gateType":"dam","operator":null},"geometry":{"type":"Point","coordinates":[101.551671,13.244979]}},{"type":"Feature","properties":{"id":"way/534562377","name":null,"gateType":"dam","operator":null},"geometry":{"type":"Point","coordinates":[101.538201,13.238204]}},{"type":"Feature","properties":{"id":"way/534562386","name":null,"gateType":"dam","operator":null},"geometry":{"type":"Point","coordinates":[101.541926,13.204226]}},{"type":"Feature","properties":{"id":"way/534569482","name":null,"gateType":"dam","operator":null},"geometry":{"type":"Point","coordinates":[101.546368,13.281056]}},{"type":"Feature","properties":{"id":"way/534613025","name":null,"gateType":"dam","operator":null},"geometry":{"type":"Point","coordinates":[101.505493,13.073214]}},{"type":"Feature","properties":{"id":"way/534614761","name":null,"gateType":"dam","operator":null},"geometry":{"type":"Point","coordinates":[101.42895,13.080293]}},{"type":"Feature","properties":{"id":"way/534614762","name":null,"gateType":"dam","operator":null},"geometry":{"type":"Point","coordinates":[101.430032,13.072782]}},{"type":"Feature","properties":{"id":"way/534827572","name":null,"gateType":"dam","operator":null},"geometry":{"type":"Point","coordinates":[101.426768,12.894336]}},{"type":"Feature","properties":{"id":"way/534827575","name":null,"gateType":"dam","operator":null},"geometry":{"type":"Point","coordinates":[101.446408,12.917563]}},{"type":"Feature","properties":{"id":"way/534827576","name":null,"gateType":"dam","operator":null},"geometry":{"type":"Point","coordinates":[101.490476,12.93409]}},{"type":"Feature","properties":{"id":"way/534827577","name":null,"gateType":"dam","operator":null},"geometry":{"type":"Point","coordinates":[101.494143,12.93637]}},{"type":"Feature","properties":{"id":"way/534827578","name":null,"gateType":"dam","operator":null},"geometry":{"type":"Point","coordinates":[101.499577,12.936791]}},{"type":"Feature","properties":{"id":"way/534827579","name":null,"gateType":"dam","operator":null},"geometry":{"type":"Point","coordinates":[101.497471,12.935975]}},{"type":"Feature","properties":{"id":"way/534827581","name":null,"gateType":"dam","operator":null},"geometry":{"type":"Point","coordinates":[101.504909,12.940103]}},{"type":"Feature","properties":{"id":"way/534827591","name":null,"gateType":"dam","operator":null},"geometry":{"type":"Point","coordinates":[101.518296,12.946737]}},{"type":"Feature","properties":{"id":"way/534827621","name":null,"gateType":"dam","operator":null},"geometry":{"type":"Point","coordinates":[101.53594,12.955489]}},{"type":"Feature","properties":{"id":"way/534831014","name":null,"gateType":"dam","operator":null},"geometry":{"type":"Point","coordinates":[101.363165,13.000246]}},{"type":"Feature","properties":{"id":"way/534831019","name":null,"gateType":"dam","operator":null},"geometry":{"type":"Point","coordinates":[101.429951,12.922033]}},{"type":"Feature","properties":{"id":"way/534831020","name":null,"gateType":"dam","operator":null},"geometry":{"type":"Point","coordinates":[101.435086,12.920365]}},{"type":"Feature","properties":{"id":"way/534832350","name":null,"gateType":"dam","operator":null},"geometry":{"type":"Point","coordinates":[101.38438,12.97427]}},{"type":"Feature","properties":{"id":"way/534832351","name":null,"gateType":"dam","operator":null},"geometry":{"type":"Point","coordinates":[101.383375,12.9755]}},{"type":"Feature","properties":{"id":"way/535165252","name":null,"gateType":"dam","operator":null},"geometry":{"type":"Point","coordinates":[101.503391,12.896344]}},{"type":"Feature","properties":{"id":"way/535165253","name":null,"gateType":"dam","operator":null},"geometry":{"type":"Point","coordinates":[101.513291,12.898603]}},{"type":"Feature","properties":{"id":"way/535165256","name":null,"gateType":"dam","operator":null},"geometry":{"type":"Point","coordinates":[101.537817,12.887026]}},{"type":"Feature","properties":{"id":"way/535165260","name":null,"gateType":"dam","operator":null},"geometry":{"type":"Point","coordinates":[101.56406,12.873128]}},{"type":"Feature","properties":{"id":"way/535165261","name":null,"gateType":"dam","operator":null},"geometry":{"type":"Point","coordinates":[101.574759,12.870634]}},{"type":"Feature","properties":{"id":"way/535165262","name":null,"gateType":"dam","operator":null},"geometry":{"type":"Point","coordinates":[101.600779,12.87236]}},{"type":"Feature","properties":{"id":"way/535201483","name":null,"gateType":"dam","operator":null},"geometry":{"type":"Point","coordinates":[101.62062,12.76768]}},{"type":"Feature","properties":{"id":"way/535201485","name":null,"gateType":"dam","operator":null},"geometry":{"type":"Point","coordinates":[101.609751,12.772798]}},{"type":"Feature","properties":{"id":"way/535201486","name":null,"gateType":"dam","operator":null},"geometry":{"type":"Point","coordinates":[101.587701,12.790503]}},{"type":"Feature","properties":{"id":"way/535201487","name":null,"gateType":"dam","operator":null},"geometry":{"type":"Point","coordinates":[101.580553,12.792023]}},{"type":"Feature","properties":{"id":"way/535201490","name":null,"gateType":"dam","operator":null},"geometry":{"type":"Point","coordinates":[101.572168,12.796053]}},{"type":"Feature","properties":{"id":"way/535201493","name":null,"gateType":"dam","operator":null},"geometry":{"type":"Point","coordinates":[101.553143,12.802082]}},{"type":"Feature","properties":{"id":"way/535201494","name":null,"gateType":"dam","operator":null},"geometry":{"type":"Point","coordinates":[101.541899,12.812649]}},{"type":"Feature","properties":{"id":"way/535201501","name":null,"gateType":"dam","operator":null},"geometry":{"type":"Point","coordinates":[101.448229,12.830449]}},{"type":"Feature","properties":{"id":"way/535225511","name":null,"gateType":"dam","operator":null},"geometry":{"type":"Point","coordinates":[101.564427,12.710684]}},{"type":"Feature","properties":{"id":"way/708510258","name":null,"gateType":"dam","operator":null},"geometry":{"type":"Point","coordinates":[101.279153,12.929855]}},{"type":"Feature","properties":{"id":"way/766410356","name":null,"gateType":"weir","operator":null},"geometry":{"type":"Point","coordinates":[101.604474,13.499655]}},{"type":"Feature","properties":{"id":"way/766410362","name":null,"gateType":"dam","operator":null},"geometry":{"type":"Point","coordinates":[101.605998,13.482024]}},{"type":"Feature","properties":{"id":"way/864154084","name":null,"gateType":"dam","operator":null},"geometry":{"type":"Point","coordinates":[100.822418,13.516554]}},{"type":"Feature","properties":{"id":"way/887680431","name":null,"gateType":"dam","operator":null},"geometry":{"type":"Point","coordinates":[101.0373,13.128847]}},{"type":"Feature","properties":{"id":"way/887891191","name":null,"gateType":"dam","operator":null},"geometry":{"type":"Point","coordinates":[101.335568,13.367935]}},{"type":"Feature","properties":{"id":"way/941920274","name":null,"gateType":"dam","operator":null},"geometry":{"type":"Point","coordinates":[100.964077,13.215156]}},{"type":"Feature","properties":{"id":"way/941920287","name":null,"gateType":"dam","operator":null},"geometry":{"type":"Point","coordinates":[100.931306,12.757213]}},{"type":"Feature","properties":{"id":"way/941920288","name":null,"gateType":"dam","operator":null},"geometry":{"type":"Point","coordinates":[101.014775,12.775536]}},{"type":"Feature","properties":{"id":"way/941920289","name":null,"gateType":"dam","operator":null},"geometry":{"type":"Point","coordinates":[101.023069,12.775252]}},{"type":"Feature","properties":{"id":"way/1100576169","name":null,"gateType":"dam","operator":null},"geometry":{"type":"Point","coordinates":[100.967047,12.809304]}},{"type":"Feature","properties":{"id":"way/1161619503","name":null,"gateType":"dam","operator":null},"geometry":{"type":"Point","coordinates":[101.2209,12.88692]}},{"type":"Feature","properties":{"id":"way/1161619504","name":null,"gateType":"dam","operator":null},"geometry":{"type":"Point","coordinates":[101.220731,12.887031]}},{"type":"Feature","properties":{"id":"way/1426980069","name":null,"gateType":"dam","operator":null},"geometry":{"type":"Point","coordinates":[101.221656,12.996818]}},{"type":"Feature","properties":{"id":"way/1460646426","name":null,"gateType":"dam","operator":null},"geometry":{"type":"Point","coordinates":[100.95759,12.931585]}},{"type":"Feature","properties":{"id":"way/1487537556","name":null,"gateType":"dam","operator":null},"geometry":{"type":"Point","coordinates":[100.984529,12.693714]}}]}