{"type":"FeatureCollection","features":[{"type":"Feature","properties":{"area_m2":348.9},"geometry":{"type":"Point","coordinates":[100.894858,12.942167]}},{"type":"Feature","properties":{"area_m2":19.2},"geometry":{"type":"Point","coordinates":[100.904992,12.957363]}},{"type":"Feature","properties":{"area_m2":30.6},"geometry":{"type":"Point","coordinates":[100.898784,12.945002]}},{"type":"Feature","properties":{"area_m2":32.4},"geometry":{"type":"Point","coordinates":[100.89502,12.94]}},{"type":"Feature","properties":{"area_m2":22.0},"geometry":{"type":"Point","coordinates":[100.905316,12.958165]}},{"type":"Feature","properties":{"area_m2":23.9},"geometry":{"type":"Point","coordinates":[100.905255,12.957774]}},{"type":"Feature","properties":{"area_m2":212.4},"geometry":{"type":"Point","coordinates":[100.913573,12.954752]}},{"type":"Feature","properties":{"area_m2":67.6},"geometry":{"type":"Point","coordinates":[100.884339,12.957849]}},{"type":"Feature","properties":{"area_m2":40.6},"geometry":{"type":"Point","coordinates":[100.883741,12.952402]}},{"type":"Feature","properties":{"area_m2":35.7},"geometry":{"type":"Point","coordinates":[100.894247,12.969256]}},{"type":"Feature","properties":{"area_m2":142.4},"geometry":{"type":"Point","coordinates":[100.906399,12.951821]}},{"type":"Feature","properties":{"area_m2":7.7},"geometry":{"type":"Point","coordinates":[100.907165,12.954607]}},{"type":"Feature","properties":{"area_m2":55.3,"name":"บ่อพักน้ำ 4 เมตร x 6 เมตร ลึก 3 เมตร คสล."},"geometry":{"type":"Point","coordinates":[100.884631,12.942713]}},{"type":"Feature","properties":{"area_m2":90.5},"geometry":{"type":"Point","coordinates":[100.900074,12.968263]}},{"type":"Feature","properties":{"area_m2":37.7},"geometry":{"type":"Point","coordinates":[100.9019,12.911885]}},{"type":"Feature","properties":{"area_m2":365.8},"geometry":{"type":"Point","coordinates":[100.898629,12.91268]}},{"type":"Feature","properties":{"area_m2":20.6},"geometry":{"type":"Point","coordinates":[100.882399,12.909395]}},{"type":"Feature","properties":{"area_m2":39.8},"geometry":{"type":"Point","coordinates":[100.900789,12.901445]}},{"type":"Feature","properties":{"area_m2":37.0},"geometry":{"type":"Point","coordinates":[100.907616,12.941329]}},{"type":"Feature","properties":{"area_m2":80.3},"geometry":{"type":"Point","coordinates":[100.902801,12.93849]}},{"type":"Feature","properties":{"area_m2":38.6},"geometry":{"type":"Point","coordinates":[100.89398,12.936703]}}]}