{"type":"FeatureCollection","features":[{"type":"Feature","properties":{"name":"อ่างชะลอน้ำแก้มลิง"},"geometry":{"type":"Point","coordinates":[100.911913,12.867022]}},{"type":"Feature","properties":{"name":"สถานีสูบน้ำเสีย P6"},"geometry":{"type":"Point","coordinates":[100.885196,12.877092]}},{"type":"Feature","properties":{"name":"สถานีสูบน้ำเสีย P4"},"geometry":{"type":"Point","coordinates":[100.888535,12.872349]}},{"type":"Feature","properties":{},"geometry":{"type":"Point","coordinates":[100.905292,12.958189]}},{"type":"Feature","properties":{},"geometry":{"type":"Point","coordinates":[100.905227,12.957759]}},{"type":"Feature","properties":{},"geometry":{"type":"Point","coordinates":[100.904963,12.957351]}},{"type":"Feature","properties":{"name":"สถานีสูบน้ำเสีย PUMP STATION(โรงแรมเอเชีย)"},"geometry":{"type":"Point","coordinates":[100.857704,12.914927]}},{"type":"Feature","properties":{},"geometry":{"type":"Point","coordinates":[100.863224,12.916009]}},{"type":"Feature","properties":{},"geometry":{"type":"Point","coordinates":[100.882424,12.909418]}},{"type":"Feature","properties":{},"geometry":{"type":"Point","coordinates":[100.898764,12.912524]}},{"type":"Feature","properties":{"name":"สถานีสูบSUMP1"},"geometry":{"type":"Point","coordinates":[100.902906,12.938445]}},{"type":"Feature","properties":{"name":"สถานีสูบSUMPแยกโพธิสาร"},"geometry":{"type":"Point","coordinates":[100.9064,12.951829]}},{"type":"Feature","properties":{"name":"บ่อรวมน้ำVT"},"geometry":{"type":"Point","coordinates":[100.908079,12.958107]}},{"type":"Feature","properties":{"name":"สถานีสูบน้ำSUMP2"},"geometry":{"type":"Point","coordinates":[100.896923,12.91833]}},{"type":"Feature","properties":{"name":"สถานีสูบน้ำSUMP3"},"geometry":{"type":"Point","coordinates":[100.903187,12.923029]}},{"type":"Feature","properties":{"name":"สถานีสูบน้ำSUMP4"},"geometry":{"type":"Point","coordinates":[100.901944,12.911875]}},{"type":"Feature","properties":{"name":"สถานีสูบน้ำSUMP5"},"geometry":{"type":"Point","coordinates":[100.900834,12.90144]}},{"type":"Feature","properties":{"name":"สถานีสูบน้ำSUMP6"},"geometry":{"type":"Point","coordinates":[100.903476,12.8852]}},{"type":"Feature","properties":{"name":"เครื่องสูบ"},"geometry":{"type":"Point","coordinates":[100.90746,12.869257]}},{"type":"Feature","properties":{"name":"สถานีสูบข้างวัดหนองใหญ่"},"geometry":{"type":"Point","coordinates":[100.907717,12.950938]}},{"type":"Feature","properties":{"name":"สถานีสูบน้ำ สุขุมวิทพัทยา8"},"geometry":{"type":"Point","coordinates":[100.91753,12.985127]}},{"type":"Feature","properties":{"name":"สถานีสูบน้ำลานโพธิ์"},"geometry":{"type":"Point","coordinates":[100.905845,12.973344]}},{"type":"Feature","properties":{"name":"สถานีสูบน้ำปึกพลับ"},"geometry":{"type":"Point","coordinates":[100.901966,12.969802]}},{"type":"Feature","properties":{"name":"สถานีสูบน้ำนาเกลือ16"},"geometry":{"type":"Point","coordinates":[100.886021,12.965033]}},{"type":"Feature","properties":{"name":"สถานีสูบน้ำสราญชล"},"geometry":{"type":"Point","coordinates":[100.886686,12.960246]}},{"type":"Feature","properties":{"name":"สถานีสูบน้ำนาเกลือ18"},"geometry":{"type":"Point","coordinates":[100.88443,12.957837]}},{"type":"Feature","properties":{"name":"สถานีสูบน้ำนาเกลือ22"},"geometry":{"type":"Point","coordinates":[100.883705,12.952422]}},{"type":"Feature","properties":{"name":"สถานีสูบน้ำริมผา"},"geometry":{"type":"Point","coordinates":[100.882739,12.952353]}},{"type":"Feature","properties":{"name":"สถานีสูบสุขุมวิทพัทยา33"},"geometry":{"type":"Point","coordinates":[100.91346,12.954617]}},{"type":"Feature","properties":{"name":"สถานีสูบน้ำซอยสุขุมวิท พัทยา 2"},"geometry":{"type":"Point","coordinates":[100.925906,12.998177]}},{"type":"Feature","properties":{"name":"สถานีสูบน้ำในซอยนาเกลือ12"},"geometry":{"type":"Point","coordinates":[100.89425,12.969295]}},{"type":"Feature","properties":{"name":"สถานีสูบน้ำสุขุมวิทพัทยา41/1-2"},"geometry":{"type":"Point","coordinates":[100.907586,12.941281]}},{"type":"Feature","properties":{"name":"สถานีสูบน้ำสุขุมวิทพัทยา41/1-1"},"geometry":{"type":"Point","coordinates":[100.907252,12.941392]}},{"type":"Feature","properties":{"name":"สถานีสูบน้ำสุขุมวิทพัทยา40"},"geometry":{"type":"Point","coordinates":[100.898805,12.936938]}},{"type":"Feature","properties":{"name":"สถานีสูบน้ำสุขุมวิทพัทยา46"},"geometry":{"type":"Point","coordinates":[100.894205,12.921078]}},{"type":"Feature","properties":{"name":"สถานีสูบน้ำสุขุมวิทพัทยา43"},"geometry":{"type":"Point","coordinates":[100.906119,12.939269]}},{"type":"Feature","properties":{"name":"สถานี PS7"},"geometry":{"type":"Point","coordinates":[100.874982,12.927879]}},{"type":"Feature","properties":{"name":"สถานี PS1"},"geometry":{"type":"Point","coordinates":[100.88521,12.926894]}},{"type":"Feature","properties":{"name":"PS12"},"geometry":{"type":"Point","coordinates":[100.867034,12.925048]}},{"type":"Feature","properties":{"name":"สถานีสูบน้ำเเยกมุมอร่อยสาย3"},"geometry":{"type":"Point","coordinates":[100.89481,12.942423]}},{"type":"Feature","properties":{"name":"สถานีสูบน้ำเพนียดช้าง2"},"geometry":{"type":"Point","coordinates":[100.898758,12.944983]}},{"type":"Feature","properties":{"name":"สถานีสูบน้ำเพนียดช้าง8"},"geometry":{"type":"Point","coordinates":[100.894997,12.940049]}},{"type":"Feature","properties":{"name":"สถานีเพนียดช้าง10"},"geometry":{"type":"Point","coordinates":[100.893938,12.9367]}},{"type":"Feature","properties":{"name":"สถานีสูบน้ำสุขุมวิทพัทยา34/1"},"geometry":{"type":"Point","coordinates":[100.902541,12.93877]}},{"type":"Feature","properties":{"name":"สถานีเกษตรสิน 4ฝน-เสีย"},"geometry":{"type":"Point","coordinates":[100.861292,12.921174]}},{"type":"Feature","properties":{"name":"สถานีเกษตรสิน 1"},"geometry":{"type":"Point","coordinates":[100.864328,12.918204]}},{"type":"Feature","properties":{"name":"สถานีเกษตรสิน 5"},"geometry":{"type":"Point","coordinates":[100.862499,12.917942]}},{"type":"Feature","properties":{"name":"สถานีท้ายซอยเกษตรสิน"},"geometry":{"type":"Point","coordinates":[100.857965,12.9182]}},{"type":"Feature","properties":{"name":"สถานีท้ายซอยเกษตรสิน2"},"geometry":{"type":"Point","coordinates":[100.857874,12.919045]}},{"type":"Feature","properties":{"name":"สถานีท้ายซอยพระตำหนัก5"},"geometry":{"type":"Point","coordinates":[100.857834,12.908816]}},{"type":"Feature","properties":{"name":"สถานีสูบน้ำ P1"},"geometry":{"type":"Point","coordinates":[100.866862,12.898592]}},{"type":"Feature","properties":{"name":"สถานีสูบน้ำซอยนาจอมเทียน2"},"geometry":{"type":"Point","coordinates":[100.89529,12.861881]}},{"type":"Feature","properties":{"name":"สถานีสูบน้ำ PJ1"},"geometry":{"type":"Point","coordinates":[100.891792,12.879338]}},{"type":"Feature","properties":{"name":"สถานีสูบน้ำ P2"},"geometry":{"type":"Point","coordinates":[100.882819,12.888914]}},{"type":"Feature","properties":{"name":"สถานีสูบน้ำเสีย P5"},"geometry":{"type":"Point","coordinates":[100.88352,12.907721]}},{"type":"Feature","properties":{"name":"สถานีสูบน้ำ สุขุมวิทพัทยา60"},"geometry":{"type":"Point","coordinates":[100.894796,12.89527]}},{"type":"Feature","properties":{"name":"สถานีสูบน้ำ สุขุมวิทพัทยา58"},"geometry":{"type":"Point","coordinates":[100.895056,12.895589]}},{"type":"Feature","properties":{"name":"สถานีสูบน้ำข้างธนาคารกรุงไทย"},"geometry":{"type":"Point","coordinates":[100.902388,12.943152]}},{"type":"Feature","properties":{},"geometry":{"type":"Point","coordinates":[100.886797,12.895541]}},{"type":"Feature","properties":{},"geometry":{"type":"Point","coordinates":[100.894739,12.919262]}},{"type":"Feature","properties":{"name":"สถานีสูบน้ำ สุขุมวิทพัทยา56"},"geometry":{"type":"Point","coordinates":[100.894803,12.899937]}},{"type":"Feature","properties":{"name":"การเคหะบ่อ 2"},"geometry":{"type":"Point","coordinates":[100.891774,12.905746]}},{"type":"Feature","properties":{"name":"เคหะพัทยา 4"},"geometry":{"type":"Point","coordinates":[100.894459,12.907424]}},{"type":"Feature","properties":{"name":"สถานีเทพประสิทธิ์ 5/1"},"geometry":{"type":"Point","coordinates":[100.885347,12.905949]}}]}