{"type":"FeatureCollection","properties":{"source":"Pattaya drainage network (SMART GIS database export)"},"features":[{"type":"Feature","properties":{"routeStationId":"cf6261e1-ac36-41de-a0f2-2b62ec3480ea","routeId":"4262a41e-f8d1-40d6-a402-45e6d71bc39a","segmentIndex":0,"distanceM":309.72,"startStation":"SUMP1","endStation":"คลองเพนียดช้าง","startHeightRef":2,"endHeightRef":1.3,"startCrossSectionArea":0,"endCrossSectionArea":0,"pointCount":6},"geometry":{"type":"LineString","coordinates":[[100.902623,12.938428],[100.902513,12.938628],[100.902382,12.938906],[100.901932,12.939112],[100.901343,12.939337],[100.900264,12.939729]]}},{"type":"Feature","properties":{"routeStationId":"5064930b-a65b-4ac0-9853-b4ff924f67dc","routeId":"e8c5c84c-5d00-4c2e-b5c1-b43e737647fa","segmentIndex":0,"distanceM":1574.3,"startStation":"ซอยบุญสัมพันธ์ 2","endStation":"SUMP4","startHeightRef":0.8,"endHeightRef":2.2,"startCrossSectionArea":0,"endCrossSectionArea":0,"pointCount":5},"geometry":{"type":"LineString","coordinates":[[100.904746,12.92499],[100.904008,12.923111],[100.903052,12.923067],[100.902131,12.916822],[100.901931,12.911991]]}},{"type":"Feature","properties":{"routeStationId":"b03040e5-a635-45c6-b51c-bf32334b1af8","routeId":"4262a41e-f8d1-40d6-a402-45e6d71bc39a","segmentIndex":1,"distanceM":220.28,"startStation":"คลองเพนียดช้าง","endStation":"ซอยเพนียดช้าง 8","startHeightRef":1.3,"endHeightRef":0.8,"startCrossSectionArea":0,"endCrossSectionArea":0,"pointCount":3},"geometry":{"type":"LineString","coordinates":[[100.900264,12.939729],[100.899694,12.939145],[100.898765,12.938472]]}},{"type":"Feature","properties":{"routeStationId":"1b70c501-0c87-4b9f-a3ec-3af46283dc4c","routeId":"e8c5c84c-5d00-4c2e-b5c1-b43e737647fa","segmentIndex":1,"distanceM":1211.53,"startStation":"SUMP4","endStation":"ปากซอยวัดธรรมสามัคคี","startHeightRef":2.2,"endHeightRef":1.05,"startCrossSectionArea":0,"endCrossSectionArea":0,"pointCount":17},"geometry":{"type":"LineString","coordinates":[[100.901931,12.911991],[100.901462,12.912027],[100.90157,12.913129],[100.901719,12.914256],[100.900968,12.914393],[100.900808,12.91495],[100.899487,12.914612],[100.899462,12.914633],[100.899341,12.915062],[100.899688,12.915206],[100.899605,12.915982],[100.899558,12.916756],[100.898775,12.916747],[100.897789,12.916598],[100.897444,12.916571],[100.89657,12.916753],[100.89647,12.916794]]}},{"type":"Feature","properties":{"routeStationId":"25c796ae-8c2a-45e6-ba21-09b30e6788b9","routeId":"4262a41e-f8d1-40d6-a402-45e6d71bc39a","segmentIndex":2,"distanceM":923.5,"startStation":"ซอยเพนียดช้าง 8","endStation":"แยกเพนียดช้าง","startHeightRef":0.8,"endHeightRef":1.8,"startCrossSectionArea":0,"endCrossSectionArea":0,"pointCount":12},"geometry":{"type":"LineString","coordinates":[[100.898765,12.938472],[100.897674,12.939364],[100.898288,12.940388],[100.897739,12.94059],[100.897215,12.940737],[100.897525,12.941303],[100.896322,12.941413],[100.896395,12.942134],[100.896034,12.942282],[100.896092,12.942597],[100.89491,12.942507],[100.894719,12.942548]]}},{"type":"Feature","properties":{"routeStationId":"ef93960a-e6a2-49eb-a3eb-44419803f074","routeId":"e8c5c84c-5d00-4c2e-b5c1-b43e737647fa","segmentIndex":2,"distanceM":862.21,"startStation":"ปากซอยวัดธรรมสามัคคี","endStation":"ซอยสุขุมวิท 69","startHeightRef":1.05,"endHeightRef":1.5,"startCrossSectionArea":0,"endCrossSectionArea":0,"pointCount":5},"geometry":{"type":"LineString","coordinates":[[100.89647,12.916794],[100.896495,12.916852],[100.896753,12.917686],[100.896838,12.918051],[100.898627,12.924122]]}},{"type":"Feature","properties":{"routeStationId":"1f12eb9f-b1a1-40a2-bd8a-31380bf0321a","routeId":"4262a41e-f8d1-40d6-a402-45e6d71bc39a","segmentIndex":3,"distanceM":455.7,"startStation":"แยกเพนียดช้าง","endStation":"ซอย Hollywood","startHeightRef":1.8,"endHeightRef":2,"startCrossSectionArea":0,"endCrossSectionArea":0,"pointCount":7},"geometry":{"type":"LineString","coordinates":[[100.894719,12.942548],[100.894524,12.942654],[100.894309,12.942815],[100.894344,12.943325],[100.893562,12.94358],[100.892482,12.943157],[100.891444,12.942785]]}},{"type":"Feature","properties":{"routeStationId":"2f278289-6d34-4aab-b03d-2e9d53878732","routeId":"e8c5c84c-5d00-4c2e-b5c1-b43e737647fa","segmentIndex":3,"distanceM":731.57,"startStation":"ซอยสุขุมวิท 69","endStation":"ซอยสุขุมวิทพัทยา 46/4","startHeightRef":1.5,"endHeightRef":1.95,"startCrossSectionArea":0,"endCrossSectionArea":0,"pointCount":4},"geometry":{"type":"LineString","coordinates":[[100.898627,12.924122],[100.896979,12.918535],[100.8966,12.918608],[100.89667,12.918944]]}},{"type":"Feature","properties":{"routeStationId":"f19836b0-5857-425e-8743-4f53eb6f2059","routeId":"e8c5c84c-5d00-4c2e-b5c1-b43e737647fa","segmentIndex":4,"distanceM":514.38,"startStation":"ซอยสุขุมวิทพัทยา 46/4","endStation":"ซอยเล้งกี่ซอย บงกช6 (หน้า LK Grand Empire)","startHeightRef":1.95,"endHeightRef":1.95,"startCrossSectionArea":0,"endCrossSectionArea":0,"pointCount":10},"geometry":{"type":"LineString","coordinates":[[100.89667,12.918944],[100.89624,12.919063],[100.895914,12.919232],[100.895845,12.919266],[100.895769,12.919415],[100.895141,12.919064],[100.895032,12.919033],[100.893966,12.919834],[100.893654,12.919541],[100.892922,12.920292]]}},{"type":"Feature","properties":{"routeStationId":"4c4d9aa0-be42-4ce1-945f-a1fa0a017d5d","routeId":"4262a41e-f8d1-40d6-a402-45e6d71bc39a","segmentIndex":4,"distanceM":516.35,"startStation":"ซอย Hollywood","endStation":"ซอยข้างธนาคารกรุงเทพ (พัทยาสายสอง4)","startHeightRef":2,"endHeightRef":1.8,"startCrossSectionArea":0,"endCrossSectionArea":0,"pointCount":6},"geometry":{"type":"LineString","coordinates":[[100.891444,12.942785],[100.890534,12.941136],[100.889638,12.941053],[100.888969,12.941052],[100.888407,12.941135],[100.887891,12.941393]]}},{"type":"Feature","properties":{"routeStationId":"f8726964-4463-4ae2-af8e-61b0686f68b8","routeId":"e8c5c84c-5d00-4c2e-b5c1-b43e737647fa","segmentIndex":5,"distanceM":857.84,"startStation":"ซอยเล้งกี่ซอย บงกช6 (หน้า LK Grand Empire)","endStation":"บริเวณสามแยกบงกช","startHeightRef":1.95,"endHeightRef":1.55,"startCrossSectionArea":0,"endCrossSectionArea":0,"pointCount":19},"geometry":{"type":"LineString","coordinates":[[100.892922,12.920292],[100.892651,12.920563],[100.892353,12.920869],[100.89226,12.921193],[100.892424,12.921523],[100.892192,12.921775],[100.891745,12.922295],[100.891745,12.922804],[100.891514,12.923494],[100.891424,12.92378],[100.89147,12.924116],[100.891411,12.924513],[100.891216,12.924761],[100.890676,12.925481],[100.890534,12.925892],[100.89044,12.92608],[100.890297,12.926261],[100.889966,12.926587],[100.88968,12.926854]]}},{"type":"Feature","properties":{"routeStationId":"fa455ce4-3f00-426e-bd90-4111adfb4dd3","routeId":"4262a41e-f8d1-40d6-a402-45e6d71bc39a","segmentIndex":5,"distanceM":387.15,"startStation":"ซอยข้างธนาคารกรุงเทพ (พัทยาสายสอง4)","endStation":"ซอยพัทยา 6/1 ฝั่งชายหาด","startHeightRef":1.8,"endHeightRef":1.65,"startCrossSectionArea":0,"endCrossSectionArea":0,"pointCount":5},"geometry":{"type":"LineString","coordinates":[[100.887891,12.941393],[100.88717,12.94135],[100.88698,12.94162],[100.88565,12.94209],[100.884765,12.942643]]}},{"type":"Feature","properties":{"routeStationId":"4d801fbc-bd86-4e85-a1bf-0358b3c4d32e","routeId":"e8c5c84c-5d00-4c2e-b5c1-b43e737647fa","segmentIndex":6,"distanceM":378.58,"startStation":"บริเวณสามแยกบงกช","endStation":"ซอยเฉลิมพระเกียรติ 23","startHeightRef":1.55,"endHeightRef":1.6,"startCrossSectionArea":0,"endCrossSectionArea":0,"pointCount":10},"geometry":{"type":"LineString","coordinates":[[100.88968,12.926854],[100.889416,12.927086],[100.888891,12.927314],[100.888451,12.927689],[100.888393,12.928271],[100.888521,12.92852],[100.88868,12.929073],[100.888637,12.929118],[100.888521,12.929191],[100.88872,12.929411]]}},{"type":"Feature","properties":{"routeStationId":"850fb373-2514-4c2e-8055-87bfb52c4bc6","routeId":"e8c5c84c-5d00-4c2e-b5c1-b43e737647fa","segmentIndex":7,"distanceM":667.67,"startStation":"ซอยเฉลิมพระเกียรติ 23","endStation":"ซอยบัวขาว 15","startHeightRef":1.6,"endHeightRef":1.5,"startCrossSectionArea":0,"endCrossSectionArea":0,"pointCount":11},"geometry":{"type":"LineString","coordinates":[[100.88872,12.929411],[100.88792,12.929456],[100.886768,12.929543],[100.886417,12.929493],[100.885968,12.929362],[100.88529,12.929114],[100.885129,12.92903],[100.885026,12.929077],[100.884676,12.928614],[100.884346,12.928143],[100.883523,12.927444]]}},{"type":"Feature","properties":{"routeStationId":"a88cb99a-a15b-42b0-a2bf-d9be23c9e2e9","routeId":"e8c5c84c-5d00-4c2e-b5c1-b43e737647fa","segmentIndex":8,"distanceM":1132.79,"startStation":"ซอยบัวขาว 15","endStation":"แยกวัดชัยมงคล","startHeightRef":1.5,"endHeightRef":6,"startCrossSectionArea":0,"endCrossSectionArea":0,"pointCount":6},"geometry":{"type":"LineString","coordinates":[[100.883523,12.927444],[100.881709,12.928981],[100.879376,12.926986],[100.877902,12.926676],[100.877017,12.927455],[100.875327,12.926155]]}},{"type":"Feature","properties":{"routeStationId":"b5d290ec-8baa-4b7a-ad37-921199a973bc","routeId":"e8c5c84c-5d00-4c2e-b5c1-b43e737647fa","segmentIndex":9,"distanceM":441.77,"startStation":"แยกวัดชัยมงคล","endStation":"ปากคลองพัทยาใต้ (ตรงข้ามซอยเย็นสบาย)","startHeightRef":6,"endHeightRef":2,"startCrossSectionArea":0,"endCrossSectionArea":0,"pointCount":7},"geometry":{"type":"LineString","coordinates":[[100.875327,12.926155],[100.875498,12.926331],[100.873988,12.925255],[100.873183,12.92447],[100.873094,12.924274],[100.873056,12.923939],[100.872984,12.923759]]}},{"type":"Feature","properties":{"routeStationId":"a8b3895c-2f83-436e-92b9-d79d72b2d549","routeId":"e8c5c84c-5d00-4c2e-b5c1-b43e737647fa","segmentIndex":10,"distanceM":740.89,"startStation":"ปากคลองพัทยาใต้ (ตรงข้ามซอยเย็นสบาย)","endStation":"PS12","startHeightRef":2,"endHeightRef":3.2,"startCrossSectionArea":0,"endCrossSectionArea":0,"pointCount":26},"geometry":{"type":"LineString","coordinates":[[100.872984,12.923759],[100.872676,12.923971],[100.872533,12.924114],[100.872324,12.924117],[100.87203,12.924206],[100.871813,12.92435],[100.871619,12.924464],[100.8714,12.92457],[100.871046,12.924691],[100.870924,12.924455],[100.870813,12.924313],[100.870642,12.924301],[100.870056,12.924348],[100.869814,12.92421],[100.86923,12.923998],[100.869139,12.923846],[100.869001,12.923799],[100.86874,12.923869],[100.868429,12.923891],[100.868044,12.923911],[100.867934,12.924035],[100.867871,12.924354],[100.867724,12.924365],[100.867528,12.924302],[100.867375,12.92438],[100.867271,12.924461]]}}]}