{"type":"FeatureCollection","properties":{"source":"Pattaya drainage network (SMART GIS database export)"},"features":[{"type":"Feature","properties":{"stationId":"0058b27d-bce5-48e8-9529-bb1e2cada878","name":"MEGA HOME","sensorType":"TUNNEL","heightRef":0.85,"crossSectionArea":0},"geometry":{"type":"Point","coordinates":[100.896446,12.904581]}},{"type":"Feature","properties":{"stationId":"75a3fccc-2031-4e6a-aad7-f79cd32ba4af","name":"PS สโมสรเรือใบราชวรุณ","sensorType":"TUNNEL","heightRef":6,"crossSectionArea":0},"geometry":{"type":"Point","coordinates":[100.857875,12.918207]}},{"type":"Feature","properties":{"stationId":"9f43929d-bbc0-405e-9497-997278acd26d","name":"ซอยบัวขาว (หน้า Tree Town)","sensorType":"ROAD","heightRef":0.3,"crossSectionArea":0},"geometry":{"type":"Point","coordinates":[100.886428,12.931509]}},{"type":"Feature","properties":{"stationId":"3faf545c-05bc-45f1-bda2-cff612ece985","name":"ปากซอยวัดธรรมสามัคคี","sensorType":"TUNNEL","heightRef":1.05,"crossSectionArea":0},"geometry":{"type":"Point","coordinates":[100.896435,12.916716]}},{"type":"Feature","properties":{"stationId":"56cddfb8-9b60-475e-b94b-47d04533bcd6","name":"ซอยบงกช8 (ซอยแบทแมน)","sensorType":"TUNNEL","heightRef":1.95,"crossSectionArea":0},"geometry":{"type":"Point","coordinates":[100.894608,12.919351]}},{"type":"Feature","properties":{"stationId":"7cc9e77b-11f4-4399-a5b9-81dc90ce4ea1","name":"สถานีสูบน้ำเสียคลองปลึกพลับ (PSK)","sensorType":"TUNNEL","heightRef":1.4,"crossSectionArea":0},"geometry":{"type":"Point","coordinates":[100.902053,12.969779]}},{"type":"Feature","properties":{"stationId":"ae269a85-c705-4834-adaa-4bf8c849588d","name":"ตลาดใหม่นาเกลือ","sensorType":"TUNNEL","heightRef":1.95,"crossSectionArea":0},"geometry":{"type":"Point","coordinates":[100.907521,12.969587]}},{"type":"Feature","properties":{"stationId":"6e2ea960-4fc8-4dd9-96a9-5f9a23ed2af5","name":"PS สโมสรเรือใบราชวรุณ","sensorType":"ROAD","heightRef":0.3,"crossSectionArea":0},"geometry":{"type":"Point","coordinates":[100.857875,12.918207]}},{"type":"Feature","properties":{"stationId":"f7542b5f-929a-46f6-b3e7-eba0c23bc107","name":"พัทยาสาย 2 (ข้างโรงแรมคาเมลอท)","sensorType":"TUNNEL","heightRef":1.45,"crossSectionArea":0},"geometry":{"type":"Point","coordinates":[100.872495,12.923099]}},{"type":"Feature","properties":{"stationId":"9506f761-29c0-4bbd-9635-24a5b920a6be","name":"ปากคลองพัทยาใต้ (ตรงข้ามซอยเย็นสบาย)","sensorType":"TUNNEL","heightRef":2,"crossSectionArea":0},"geometry":{"type":"Point","coordinates":[100.872935,12.923782]}},{"type":"Feature","properties":{"stationId":"4ed52a8c-c9ea-47d6-a683-9cd9c42a646f","name":"วงเวียนปลาโลมา (ซอยนาเกลือ 24)","sensorType":"ROAD","heightRef":0.3,"crossSectionArea":0},"geometry":{"type":"Point","coordinates":[100.883817,12.951229]}},{"type":"Feature","properties":{"stationId":"8b7f1338-2942-4605-b15b-1bba1e5fc95d","name":"ซอยบัวขาว 15","sensorType":"TUNNEL","heightRef":1.5,"crossSectionArea":0},"geometry":{"type":"Point","coordinates":[100.883447,12.927494]}},{"type":"Feature","properties":{"stationId":"f121492e-9684-4d89-ba8f-77c06bf2ccb1","name":"คลองเพนียดช้าง","sensorType":"TUNNEL","heightRef":1.3,"crossSectionArea":0},"geometry":{"type":"Point","coordinates":[100.900247,12.939746]}},{"type":"Feature","properties":{"stationId":"ab9a58dd-4b35-499d-b963-4d6e015b5736","name":"SUMP4","sensorType":"ROAD","heightRef":0.3,"crossSectionArea":0},"geometry":{"type":"Point","coordinates":[100.901927,12.91199]}},{"type":"Feature","properties":{"stationId":"3510bba7-bc47-4354-9961-3956892f35b4","name":"ซอย Hollywood","sensorType":"TUNNEL","heightRef":2,"crossSectionArea":0},"geometry":{"type":"Point","coordinates":[100.891442,12.942709]}},{"type":"Feature","properties":{"stationId":"d351b601-2afc-4d41-98cd-90a866a26174","name":"หน้าวิทยาลัยเทคนิคพัทยา","sensorType":"TUNNEL","heightRef":0.95,"crossSectionArea":0},"geometry":{"type":"Point","coordinates":[100.924214,12.982378]}},{"type":"Feature","properties":{"stationId":"2e3d6a90-14f6-4d31-a646-f6badf5b57a5","name":"PS12","sensorType":"TUNNEL","heightRef":3.2,"crossSectionArea":0},"geometry":{"type":"Point","coordinates":[100.867271,12.924462]}},{"type":"Feature","properties":{"stationId":"9f3d9154-39c3-4080-a662-b2ce2a34bd32","name":"ซอยแตงโม (บัวขาว)","sensorType":"ROAD","heightRef":0.3,"crossSectionArea":0},"geometry":{"type":"Point","coordinates":[100.887507,12.932967]}},{"type":"Feature","properties":{"stationId":"c6f2b079-7cf2-4c18-8fc8-2ff04f35a2cc","name":"SUMP6 (ใน BOX ลอดรถไฟ)","sensorType":"TUNNEL","heightRef":2.5,"crossSectionArea":0},"geometry":{"type":"Point","coordinates":[100.90319,12.885306]}},{"type":"Feature","properties":{"stationId":"ac60b824-ba57-4e30-80e5-7e9d5336820e","name":"หน้า Lakeland (ร่องกลางสุขุมวิท)","sensorType":"ROAD","heightRef":0.3,"crossSectionArea":0},"geometry":{"type":"Point","coordinates":[100.897876,12.88412]}},{"type":"Feature","properties":{"stationId":"0b4c27f9-0e00-4a42-aa34-36a57804da23","name":"แยกวัดชัยมงคล","sensorType":"TUNNEL","heightRef":6,"crossSectionArea":0},"geometry":{"type":"Point","coordinates":[100.875327,12.926155]}},{"type":"Feature","properties":{"stationId":"849394c1-2382-4a96-996d-4df909d72971","name":"ซอยสุขุมวิทพัทยา 46/4","sensorType":"TUNNEL","heightRef":1.95,"crossSectionArea":0},"geometry":{"type":"Point","coordinates":[100.896671,12.918946]}},{"type":"Feature","properties":{"stationId":"889aaeb1-4eb3-4ef5-bb81-e986eef97daa","name":"SUMP4","sensorType":"TUNNEL","heightRef":2.2,"crossSectionArea":0},"geometry":{"type":"Point","coordinates":[100.901927,12.91199]}},{"type":"Feature","properties":{"stationId":"0535f86e-30ba-42b2-8d19-e7e4877c9876","name":"หน้าถนนสุขุมวิท บริเวณเกาะกลางหน้าโรงเรียนเมือง 4","sensorType":"ROAD","heightRef":0.3,"crossSectionArea":0},"geometry":{"type":"Point","coordinates":[100.906509,12.951674]}},{"type":"Feature","properties":{"stationId":"e7a3f4fd-5c15-4cc0-a7fe-6578731d9424","name":"โรงบำบัดน้ำเสียหนองใหญ่","sensorType":"TUNNEL","heightRef":10,"crossSectionArea":0},"geometry":{"type":"Point","coordinates":[100.916989,12.944263]}},{"type":"Feature","properties":{"stationId":"460fea46-00fe-4c59-8c2f-64ad9f1e555c","name":"สถานีสูบน้ำเสียลานโพธิ์ (PSL)","sensorType":"TUNNEL","heightRef":2,"crossSectionArea":0},"geometry":{"type":"Point","coordinates":[100.906016,12.973404]}},{"type":"Feature","properties":{"stationId":"2fec9b54-0ba7-4536-a3d0-548af5a88d93","name":"ปากซอยสวนมะลิ ชุมชนหัวทุ่ง","sensorType":"TUNNEL","heightRef":1.85,"crossSectionArea":0},"geometry":{"type":"Point","coordinates":[100.903734,12.960243]}},{"type":"Feature","properties":{"stationId":"5cda5d0b-e8ef-47aa-9658-6dc1203a9383","name":"แยกเพนียดช้าง","sensorType":"TUNNEL","heightRef":1.8,"crossSectionArea":0},"geometry":{"type":"Point","coordinates":[100.894729,12.942539]}},{"type":"Feature","properties":{"stationId":"448399cc-e837-4433-89e9-ba64096e61a4","name":"พัทยาสาย 3","sensorType":"ROAD","heightRef":0.5,"crossSectionArea":0},"geometry":{"type":"Point","coordinates":[100.894367,12.941127]}},{"type":"Feature","properties":{"stationId":"2e9c576f-39e4-4319-a71f-4d1573a3a228","name":"ซอยบุณย์กัญจนา 4","sensorType":"TUNNEL","heightRef":0.7,"crossSectionArea":0},"geometry":{"type":"Point","coordinates":[100.886305,12.89361]}},{"type":"Feature","properties":{"stationId":"2f64a8b2-6f2d-4584-8f50-38d9021bb18e","name":"SUMP2","sensorType":"TUNNEL","heightRef":2,"crossSectionArea":0},"geometry":{"type":"Point","coordinates":[100.896776,12.918575]}},{"type":"Feature","properties":{"stationId":"93b4bd40-dd96-477d-bcae-641178915a19","name":"ซอยสุขุมวิท 69","sensorType":"TUNNEL","heightRef":1.5,"crossSectionArea":0},"geometry":{"type":"Point","coordinates":[100.898623,12.924166]}},{"type":"Feature","properties":{"stationId":"2a858a16-281b-431d-81c5-faf520b3a0fb","name":"ปากซอยสวนมะลิ (หน้าชุมชนหัวทุ่ง)","sensorType":"ROAD","heightRef":0.3,"crossSectionArea":0},"geometry":{"type":"Point","coordinates":[100.903734,12.960243]}},{"type":"Feature","properties":{"stationId":"962e142e-2531-45f5-a841-cc0969000057","name":"หมู่บ้านดาราภัณฑ์","sensorType":"ROAD","heightRef":0.3,"crossSectionArea":0},"geometry":{"type":"Point","coordinates":[100.899436,12.914619]}},{"type":"Feature","properties":{"stationId":"e9a4aa34-bf7b-4145-acbf-7f5e1c2d1808","name":"SUMP1","sensorType":"TUNNEL","heightRef":2,"crossSectionArea":0},"geometry":{"type":"Point","coordinates":[100.902621,12.938433]}},{"type":"Feature","properties":{"stationId":"c11bffc2-d4f2-4981-b667-84a0ebaa9063","name":"สามแยกวาย","sensorType":"TUNNEL","heightRef":1.75,"crossSectionArea":0},"geometry":{"type":"Point","coordinates":[100.913527,12.954701]}},{"type":"Feature","properties":{"stationId":"0d930aa0-8d3b-4dc2-a698-bbbd0daf02b2","name":"SUMP5","sensorType":"TUNNEL","heightRef":2.2,"crossSectionArea":0},"geometry":{"type":"Point","coordinates":[100.90082,12.901573]}},{"type":"Feature","properties":{"stationId":"50fa7790-75bb-4a36-9f77-48893d051564","name":"SUMP1 (ร่องกลางถนนสุขุมวิทหน้าบุญถาวร)","sensorType":"ROAD","heightRef":0.3,"crossSectionArea":0},"geometry":{"type":"Point","coordinates":[100.902621,12.938433]}},{"type":"Feature","properties":{"stationId":"e93b5286-f3d0-4175-bdfc-0969102bc823","name":"ซอยข้างธนาคารกรุงเทพ (พัทยาสายสอง4)","sensorType":"TUNNEL","heightRef":1.8,"crossSectionArea":0},"geometry":{"type":"Point","coordinates":[100.887847,12.941412]}},{"type":"Feature","properties":{"stationId":"030f5ba6-1c58-4520-a94b-23a026d4ddea","name":"หน้าห้าง Daynight (ตึกคอม)","sensorType":"TUNNEL","heightRef":1.5,"crossSectionArea":0},"geometry":{"type":"Point","coordinates":[100.87854,12.924052]}},{"type":"Feature","properties":{"stationId":"b8bd37e7-7485-49f7-9c65-26ec964261fe","name":"หนองใหญ่ 2","sensorType":"TUNNEL","heightRef":1.75,"crossSectionArea":0},"geometry":{"type":"Point","coordinates":[100.907841,12.951021]}},{"type":"Feature","properties":{"stationId":"2aca5a91-1858-4ef5-aa45-3795a71e5ae2","name":"ซอยนาเกลือ 13 (ถนนทางเข้าโรงเรียนอักษรใหม่)","sensorType":"TUNNEL","heightRef":1.7,"crossSectionArea":0},"geometry":{"type":"Point","coordinates":[100.900169,12.968119]}},{"type":"Feature","properties":{"stationId":"908269c8-4c97-48f4-a4a2-828e52b405c6","name":"ซอยเทพประสิทธ์ 9 (สามแยก)","sensorType":"TUNNEL","heightRef":1.8,"crossSectionArea":0},"geometry":{"type":"Point","coordinates":[100.883549,12.900269]}},{"type":"Feature","properties":{"stationId":"bfd7245d-b837-4092-829e-2e286bc40285","name":"บริเวณสามแยกบงกช","sensorType":"TUNNEL","heightRef":1.55,"crossSectionArea":0},"geometry":{"type":"Point","coordinates":[100.88968,12.926854]}},{"type":"Feature","properties":{"stationId":"f451b2ba-11c7-4657-8757-77088ae155b5","name":"ซอยเล้งกี่ซอย บงกช6 (หน้า LK Grand Empire)","sensorType":"TUNNEL","heightRef":1.95,"crossSectionArea":0},"geometry":{"type":"Point","coordinates":[100.892922,12.920292]}},{"type":"Feature","properties":{"stationId":"2d48c49a-70d0-4724-98e8-1f89259e6715","name":"ปากซอยวัดบุญสัมพันธ์ 2","sensorType":"ROAD","heightRef":0.3,"crossSectionArea":0},"geometry":{"type":"Point","coordinates":[100.904031,12.923153]}},{"type":"Feature","properties":{"stationId":"4e732ed5-dbdc-42d7-a4b6-c403fed4a79d","name":"หน้า Lakeland","sensorType":"TUNNEL","heightRef":1.8,"crossSectionArea":0},"geometry":{"type":"Point","coordinates":[100.897876,12.88412]}},{"type":"Feature","properties":{"stationId":"ed293994-44bd-4ea9-9b24-77bff9916f90","name":"ซอยบุญสัมพันธ์ 2","sensorType":"TUNNEL","heightRef":0.8,"crossSectionArea":0},"geometry":{"type":"Point","coordinates":[100.904745,12.925055]}},{"type":"Feature","properties":{"stationId":"c03b65d0-5c31-4753-a531-ba84efa1e16d","name":"ปากซอยนาเกลือ 10 (หน้าร้านโจ๊กคุณน้อย)","sensorType":"ROAD","heightRef":0.3,"crossSectionArea":0},"geometry":{"type":"Point","coordinates":[100.90076,12.968942]}},{"type":"Feature","properties":{"stationId":"9d8b519a-fa3a-43fd-a760-0cd14ecd5da7","name":"PS7 (หน้า Walking Street)","sensorType":"TUNNEL","heightRef":2.1,"crossSectionArea":0},"geometry":{"type":"Point","coordinates":[100.875023,12.927762]}},{"type":"Feature","properties":{"stationId":"7a21f6c4-8fdb-4dce-8542-759806a6d554","name":"ซอยเฉลิมพระเกียรติ 23","sensorType":"TUNNEL","heightRef":1.6,"crossSectionArea":0},"geometry":{"type":"Point","coordinates":[100.888719,12.929412]}},{"type":"Feature","properties":{"stationId":"54ea51e6-1a22-4d68-bb4f-c883ff731062","name":"ปากซอยโพธิสาร (ฝั่งถนนสุขุมวิท)","sensorType":"TUNNEL","heightRef":1,"crossSectionArea":0},"geometry":{"type":"Point","coordinates":[100.906413,12.952176]}},{"type":"Feature","properties":{"stationId":"88a5080b-f583-4ce2-b7e3-0f5e7b349d8f","name":"พัทยาสาย 2 ซอย 18 (ซอยเย็นสบาย)","sensorType":"TUNNEL","heightRef":1.7,"crossSectionArea":0},"geometry":{"type":"Point","coordinates":[100.873117,12.923763]}},{"type":"Feature","properties":{"stationId":"e3f019f0-0a33-4cf2-a699-7386abfb3c75","name":"SUMP2 (ร่องกลางถนนสุขุมวิทหน้าปั๊มบางจาก)","sensorType":"ROAD","heightRef":1,"crossSectionArea":0},"geometry":{"type":"Point","coordinates":[100.896776,12.918575]}},{"type":"Feature","properties":{"stationId":"0550c7b5-34d3-4569-863f-9b2aa8b9a643","name":"พัทยาสาย 3","sensorType":"TUNNEL","heightRef":1.8,"crossSectionArea":0},"geometry":{"type":"Point","coordinates":[100.894367,12.941127]}},{"type":"Feature","properties":{"stationId":"1b4058bc-0daf-4a87-8cde-bf675bebaad0","name":"MEGA HOME (ร่องกลางสุขุมวิท)","sensorType":"ROAD","heightRef":0.3,"crossSectionArea":0},"geometry":{"type":"Point","coordinates":[100.896446,12.904581]}},{"type":"Feature","properties":{"stationId":"49b46014-3e91-45a5-98c5-85abd8c30a6a","name":"ซอยเพนียดช้าง 8","sensorType":"TUNNEL","heightRef":0.8,"crossSectionArea":0},"geometry":{"type":"Point","coordinates":[100.898775,12.938493]}},{"type":"Feature","properties":{"stationId":"62835477-2f66-4ea2-a2eb-1caa7e7f779c","name":"ซอยพัทยา 6/1 ฝั่งชายหาด","sensorType":"TUNNEL","heightRef":1.65,"crossSectionArea":0},"geometry":{"type":"Point","coordinates":[100.884765,12.942643]}}]}