{
  "type": "Feature",
  "geometry": {
    "type": "Polygon",
    "coordinates": [
      [
        [101.72013092041033, 13.179710388183594],
        [101.6984786987307, 13.151228904724064],
        [101.64795684814459, 13.163071632385368],
        [101.58891296386736, 13.11819076538086],
        [101.55813598632841, 13.071799278259334],
        [101.52770233154314, 13.073650360107479],
        [101.4649658203125, 13.032260894775447],
        [101.43834686279325, 13.05084037780773],
        [101.42292022705107, 13.037841796875057],
        [101.38117980957026, 13.037570953369197],
        [101.32675170898443, 13.082392692565975],
        [101.27332305908226, 13.056428909301815],
        [101.23783111572271, 13.063949584960938],
        [101.19644927978521, 13.0867214202882],
        [101.17457580566435, 13.07184028625494],
        [101.17121887207048, 13.045130729675293],
        [101.10169219970709, 13.04512023925787],
        [101.06867218017601, 13.00508022308361],
        [101.0916824340822, 12.99700927734375],
        [101.09010314941418, 12.914900779724064],
        [101.06665802001947, 12.860849380493164],
        [101.05774688720703, 12.823810577392692],
        [101.01470184326178, 12.785649299621639],
        [101.00469970703142, 12.733511924743596],
        [100.98560333251947, 12.69115161895752],
        [100.99267578125017, 12.655878067016658],
        [100.96835327148443, 12.644160270690861],
        [100.96277618408203, 12.601392745971737],
        [100.91883087158197, 12.620302200317326],
        [100.92951965332026, 12.64670181274414],
        [100.90265655517595, 12.662411689758358],
        [100.86151885986334, 12.652180671692008],
        [100.85756683349638, 12.674860000610352],
        [100.8340072631836, 12.7134304046632],
        [100.83986663818354, 12.750850677490234],
        [100.87033081054693, 12.769882202148494],
        [100.90277862548857, 12.777776718139648],
        [100.9134902954101, 12.807129859924373],
        [100.89353942871094, 12.864358901977596],
        [100.85575866699219, 12.910490989685172],
        [100.88355255126947, 12.939417839050236],
        [100.88249969482428, 12.968059539794865],
        [100.9176712036134, 12.985361099243107],
        [100.92797851562511, 13.010310173034725],
        [100.91471862792974, 13.044722557067928],
        [100.89111328125006, 13.042498588562069],
        [100.87194824218767, 13.07694053649908],
        [100.87889099121116, 13.10999965667736],
        [100.92500305175781, 13.170554161071777],
        [100.93583679199236, 13.204721450805664],
        [100.92749786376959, 13.25777912139904],
        [100.90096282958984, 13.299140930175781],
        [100.92391967773443, 13.339315414428711],
        [100.97583007812528, 13.359166145324764],
        [100.98388671874994, 13.393891334533635],
        [100.96694183349626, 13.434721946716309],
        [100.97873687744135, 13.470134735107422],
        [101.00810241699213, 13.462689399719238],
        [101.0343627929688, 13.496081352233944],
        [101.07189941406256, 13.517360687255803],
        [101.05629730224615, 13.551720619201717],
        [101.09516906738287, 13.552700996398926],
        [101.13060760498047, 13.569279670715275],
        [101.14279174804705, 13.592630386352653],
        [101.16770935058622, 13.597750663757381],
        [101.190902709961, 13.584330558776855],
        [101.27404022216797, 13.556778907775822],
        [101.32427215576178, 13.49679183959961],
        [101.36785888671892, 13.457650184631348],
        [101.42637634277338, 13.451669692993278],
        [101.42616271972685, 13.429651260375977],
        [101.45345306396496, 13.40652179718029],
        [101.49749755859403, 13.41852188110363],
        [101.5483169555664, 13.396471023559627],
        [101.56523132324213, 13.331029891967887],
        [101.60085296630888, 13.302021980285758],
        [101.64071655273466, 13.292020797729492],
        [101.66879272460949, 13.272321701049748],
        [101.72013092041033, 13.179710388183594]
      ]
    ]
  },
  "properties": {
    "ID_0": 228,
    "ISO": "THA",
    "NAME_0": "Thailand",
    "ID_1": 12,
    "NAME_1": "Chon Buri",
    "TYPE_1": "Changwat",
    "ENGTYPE_1": "Province",
    "NL_NAME_1": "จังหวัดชลบุรี",
    "VARNAME_1": null
  }
}
